[{"OBJECT_NAME":"SHIJIAN-6 01B (SJ-6 01B)","OBJECT_ID":"2004-035B","EPOCH":"2026-03-09T23:36:14.904576","MEAN_MOTION":15.05644225,"ECCENTRICITY":0.00063174,"INCLINATION":97.6149,"RA_OF_ASC_NODE":88.1348,"ARG_OF_PERICENTER":111.8734,"MEAN_ANOMALY":248.3165,"EPHEMERIS_TYPE":0,"CLASSIFICATION_TYPE":"U","NORAD_CAT_ID":28414,"ELEMENT_SET_NO":999,"REV_AT_EPOCH":17189,"BSTAR":0.00017015082,"MEAN_MOTION_DOT":2.395e-5,"MEAN_MOTION_DDOT":0},{"OBJECT_NAME":"STARLINK-5401","OBJECT_ID":"2022-177BC","EPOCH":"2026-03-08T12:30:42.167232","MEAN_MOTION":15.02896874,"ECCENTRICITY":0.0001749,"INCLINATION":43.0079,"RA_OF_ASC_NODE":126.3191,"ARG_OF_PERICENTER":274.8194,"MEAN_ANOMALY":85.2449,"EPHEMERIS_TYPE":0,"CLASSIFICATION_TYPE":"U","NORAD_CAT_ID":54870,"ELEMENT_SET_NO":999,"REV_AT_EPOCH":17693,"BSTAR":0.0019979415,"MEAN_MOTION_DOT":0.0002715,"MEAN_MOTION_DDOT":0}]
